STARLINK-36203          
1 67214U 25304Y   26199.29524622  .00002283  00000+0  19903-3 0  9992
2 67214  69.9995 205.3280 0003875 265.1198  94.9519 14.98333958 33448
STARLINK-36221          
1 67215U 25304Z   26199.62071278  .00002087  00000+0  18264-3 0  9995
2 67215  69.9996 204.4553 0003128 266.5072  93.5730 14.98334703 33494
STARLINK-36212          
1 67216U 25304AA  26199.58335648 -.00035690  00000+0 -29968-2 0  9995
2 67216  70.0001 204.4995 0004028 267.3538 296.3730 14.98349026  5374
STARLINK-36216          
1 67217U 25304AB  26199.27021997  .00002151  00000+0  18795-3 0  9992
2 67217  69.9995 205.2397 0003630 260.7888  99.2861 14.98336679 33435
STARLINK-36211          
1 67218U 25304AC  26199.46214787  .00002294  00000+0  19997-3 0  9998
2 67218  70.0000 204.7032 0003709 273.8384  86.2351 14.98328897 33443
DISKSAT C               
1 67219U 25305A   26199.27114848  .00003725  00000+0  23870-3 0  9991
2 67219  45.0021 277.8099 0006892 331.9885  28.0620 15.10276949 32022
DISKSAT B               
1 67220U 25305B   26199.61457808  .00000613  00000+0  53671-4 0  9993
2 67220  45.0039 276.9581 0005138 323.5896  36.4630 15.08905097 32068
DISKSAT D               
1 67221U 25305C   26199.60540660  .00000726  00000+0  60232-4 0  9998
2 67221  45.0029 276.8968 0005379 332.1758  27.8829 15.09209938 32062
DISKSAT A               
1 67222U 25305D   26199.29352548  .00004162  00000+0  26751-3 0  9995
2 67222  45.0027 277.9727 0006206 332.3915  27.6631 15.09920211 32011
TJS-23                  
1 67226U 25306A   26199.51558627  .00000011  00000+0  00000+0 0  9995
2 67226   5.5184 297.3214 0004396 198.9022 161.2643  1.00268121  2207
QPS-SAR-15 (SUKUNAMI-I) 
1 67228U 25307A   26199.28698115  .00001868  00000+0  16549-3 0  9999
2 67228  42.0072  57.0837 0010747 205.5724 154.4571 14.99207063 31356
SPACEMOBILE-006         
1 67232U 25309A   26199.36977421  .00001388  00000+0  81418-4 0  9990
2 67232  52.9937 188.7910 0009785 226.0321 133.9866 15.18663329 31336
OBZOR-R 1               
1 67234U 25310A   26199.00754153  .00000061  00000+0  16143-4 0  9990
2 67234  97.9666 205.8522 0001630 100.8234 259.3159 14.75894341 30170
HULIANWANG DIGUI-128    
1 67236U 25311A   26199.46156624 -.00000112  00000+0  26133-4 0  9990
2 67236  50.0100   3.3930 0000924  86.1384 273.9593 13.29323845 27507
HULIANWANG DIGUI-129    
1 67237U 25311B   26199.46984486 -.00000122  00000+0  43649-5 0  9999
2 67237  50.0089   3.4173 0000866  87.8352 272.2619 13.29325011 27500
HULIANWANG DIGUI-130    
1 67238U 25311C   26198.91859038 -.00000101  00000+0  50251-4 0  9996
2 67238  50.0066   5.7957 0000949  85.2099 274.8882 13.29323723 27422
HULIANWANG DIGUI-131    
1 67239U 25311D   26199.15249562 -.00000115  00000+0  19587-4 0  9991
2 67239  50.0066   5.0227 0000975  84.0545 276.0438 13.29323485 27457
HULIANWANG DIGUI-132    
1 67240U 25311E   26199.50329876 -.00000115  00000+0  20012-4 0  9994
2 67240  50.0076   3.5657 0000924  82.5682 277.5295 13.29324215 27504
HULIANWANG DIGUI-133    
1 67241U 25311F   26199.48661910 -.00000118  00000+0  14069-4 0  9998
2 67241  50.0121   3.5548 0000893  85.9959 274.1015 13.29324232 27506
HULIANWANG DIGUI-134    
1 67242U 25311G   26199.49494056 -.00000116  00000+0  18316-4 0  9992
2 67242  50.0050   3.4805 0000916  85.1389 274.9587 13.29323961 27508
HULIANWANG DIGUI-135    
1 67243U 25311H   26198.91021516 -.00000107  00000+0  36299-4 0  9996
2 67243  50.0034   5.6996 0000954  79.5216 280.5763 13.29323683 27425
HULIANWANG DIGUI-136    
1 67244U 25311J   26199.47822155 -.00000121  00000+0  67547-5 0  9994
2 67244  50.0109   3.4913 0000863  87.6162 272.4809 13.29324632 27508
FENGYUN 4C              
1 67246U 25312A   26194.65865777 -.00000328  00000+0  00000+0 0  9993
2 67246   0.0385 175.3203 0000658  48.7481  77.5697  1.00269440  2048
2025-313A               
1 67248U 25313A   26199.15225859  .00000392  00000+0  45716-4 0  9995
2 67248  97.5412 261.1150 0275985 237.1138 120.3238 14.67316395 29560
2025-313B               
1 67249U 25313B   26199.18411128  .00001027  00000+0  83292-4 0  9992
2 67249  97.5099 262.3848 0290969 234.2705 123.1122 14.74356370 29700
2025-313C               
1 67250U 25313C   26199.61830924  .00004744  00000+0  41348-3 0  9995
2 67250  97.6149 269.1548 0148551 232.0820 126.6892 14.89184659 30039
2025-313D               
1 67251U 25313D   26199.64684037  .00000828  00000+0  76057-4 0  9996
2 67251  97.5673 268.6377 0147428 222.1149 136.8665 14.89716810 30087
ZORKIY-2M-VPE           
1 67252U 25313E   26199.16426633  .00003713  00000+0  15318-3 0  9998
2 67252  97.3931 273.7520 0008944 227.8779 132.1699 15.24638808 30693
AIST-2T 1               
1 67253U 25313F   26198.63425095  .00017286  00000+0  20894-3 0  9996
2 67253  97.0816 276.2091 0004814 145.0298 215.1277 15.60762087 31370
AIST-2T 2               
1 67254U 25313G   26198.66641765 -.00002119  00000+0 -24396-4 0  9997
2 67254  97.0815 276.1620 0004063 114.2632 245.9051 15.60683545 31364
