OBJECT_NAME,OBJECT_ID,EPOCH,MEAN_MOTION,ECCENTRICITY,INCLINATION,RA_OF_ASC_NODE,ARG_OF_PERICENTER,MEAN_ANOMALY,EPHEMERIS_TYPE,CLASSIFICATION_TYPE,NORAD_CAT_ID,ELEMENT_SET_NO,REV_AT_EPOCH,BSTAR,MEAN_MOTION_DOT,MEAN_MOTION_DDOT
STARLINK-36203,2025-304Y,2026-07-18T07:05:09.273408,14.98333958,.00038754,69.9995,205.3280,265.1198,94.9519,0,U,67214,999,3344,.19903385E-3,.2283E-4,0
STARLINK-36221,2025-304Z,2026-07-18T14:53:49.584192,14.98334703,.0003128,69.9996,204.4553,266.5072,93.5730,0,U,67215,999,3349,.18263671E-3,.2087E-4,0
STARLINK-36212,2025-304AA,2026-07-18T14:00:01.999872,14.98349026,.00040286,70.0001,204.4995,267.3538,296.3730,0,U,67216,999,537,-.29968187E-2,-.3569E-3,0
STARLINK-36216,2025-304AB,2026-07-18T06:29:07.005408,14.98336679,.00036304,69.9995,205.2397,260.7888,99.2861,0,U,67217,999,3343,.18794995E-3,.2151E-4,0
STARLINK-36211,2025-304AC,2026-07-18T11:05:29.575968,14.98328897,.00037094,70.0000,204.7032,273.8384,86.2351,0,U,67218,999,3344,.19996886E-3,.2294E-4,0
DISKSAT C,2025-305A,2026-07-18T06:30:27.228672,15.10276949,.00068924,45.0021,277.8099,331.9885,28.0620,0,U,67219,999,3202,.23869986E-3,.3725E-4,0
DISKSAT B,2025-305B,2026-07-18T14:44:59.546112,15.08905097,.00051389,45.0039,276.9581,323.5896,36.4630,0,U,67220,999,3206,.53671287E-4,.613E-5,0
DISKSAT D,2025-305C,2026-07-18T14:31:47.130240,15.09209938,.00053795,45.0029,276.8968,332.1758,27.8829,0,U,67221,999,3206,.60232239E-4,.726E-5,0
DISKSAT A,2025-305D,2026-07-18T07:02:40.601472,15.09920211,.0006206,45.0027,277.9727,332.3915,27.6631,0,U,67222,999,3201,.26751028E-3,.4162E-4,0
TJS-23,2025-306A,2026-07-18T12:22:26.653728,1.00268121,.00043965,5.5184,297.3214,198.9022,161.2643,0,U,67226,999,220,0,.11E-6,0
QPS-SAR-15 (SUKUNAMI-I),2025-307A,2026-07-18T06:53:15.171360,14.99207063,.00107473,42.0072,57.0837,205.5724,154.4571,0,U,67228,999,3135,.16549444E-3,.1868E-4,0
SPACEMOBILE-006,2025-309A,2026-07-18T08:52:28.491744,15.18663329,.00097856,52.9937,188.7910,226.0321,133.9866,0,U,67232,999,3133,.81418095E-4,.1388E-4,0
OBZOR-R 1,2025-310A,2026-07-18T00:10:51.588192,14.75894341,.00016305,97.9666,205.8522,100.8234,259.3159,0,U,67234,999,3017,.16142905E-4,.61E-6,0
HULIANWANG DIGUI-128,2025-311A,2026-07-18T11:04:39.323136,13.29323845,.00009245,50.0100,3.3930,86.1384,273.9593,0,U,67236,999,2750,.26132981E-4,-.112E-5,0
HULIANWANG DIGUI-129,2025-311B,2026-07-18T11:16:34.595904,13.29325011,.00008668,50.0089,3.4173,87.8352,272.2619,0,U,67237,999,2750,.4364852E-5,-.122E-5,0
HULIANWANG DIGUI-130,2025-311C,2026-07-17T22:02:46.208832,13.29323723,.00009496,50.0066,5.7957,85.2099,274.8882,0,U,67238,999,2742,.50251377E-4,-.101E-5,0
HULIANWANG DIGUI-131,2025-311D,2026-07-18T03:39:35.621568,13.29323485,.0000975,50.0066,5.0227,84.0545,276.0438,0,U,67239,999,2745,.19586675E-4,-.115E-5,0
HULIANWANG DIGUI-132,2025-311E,2026-07-18T12:04:45.012864,13.29324215,.00009242,50.0076,3.5657,82.5682,277.5295,0,U,67240,999,2750,.20012359E-4,-.115E-5,0
HULIANWANG DIGUI-133,2025-311F,2026-07-18T11:40:43.890240,13.29324232,.00008935,50.0121,3.5548,85.9959,274.1015,0,U,67241,999,2750,.14069322E-4,-.118E-5,0
HULIANWANG DIGUI-134,2025-311G,2026-07-18T11:52:42.864384,13.29323961,.0000916,50.0050,3.4805,85.1389,274.9587,0,U,67242,999,2750,.1831608E-4,-.116E-5,0
HULIANWANG DIGUI-135,2025-311H,2026-07-17T21:50:42.589824,13.29323683,.00009549,50.0034,5.6996,79.5216,280.5763,0,U,67243,999,2742,.36298544E-4,-.107E-5,0
HULIANWANG DIGUI-136,2025-311J,2026-07-18T11:28:38.341920,13.29324632,.00008634,50.0109,3.4913,87.6162,272.4809,0,U,67244,999,2750,.6754675E-5,-.121E-5,0
FENGYUN 4C,2025-312A,2026-07-13T15:48:28.031328,1.00269440,.00006584,0.0385,175.3203,48.7481,77.5697,0,U,67246,999,204,0,-.328E-5,0
2025-313A,2025-313A,2026-07-18T03:39:15.142176,14.67316395,.02759852,97.5412,261.1150,237.1138,120.3238,0,U,67248,999,2956,.45715748E-4,.392E-5,0
2025-313B,2025-313B,2026-07-18T04:25:07.214592,14.74356370,.02909692,97.5099,262.3848,234.2705,123.1122,0,U,67249,999,2970,.83292002E-4,.1027E-4,0
2025-313C,2025-313C,2026-07-18T14:50:21.918336,14.89184659,.0148551,97.6149,269.1548,232.0820,126.6892,0,U,67250,999,3003,.41348314E-3,.4744E-4,0
2025-313D,2025-313D,2026-07-18T15:31:27.007968,14.89716810,.01474283,97.5673,268.6377,222.1149,136.8665,0,U,67251,999,3008,.76056863E-4,.828E-5,0
ZORKIY-2M-VPE,2025-313E,2026-07-18T03:56:32.610912,15.24638808,.00089445,97.3931,273.7520,227.8779,132.1699,0,U,67252,999,3069,.1531827E-3,.3713E-4,0
AIST-2T 1,2025-313F,2026-07-17T15:13:19.282080,15.60762087,.00048142,97.0816,276.2091,145.0298,215.1277,0,U,67253,999,3137,.20893762E-3,.17286E-3,0
AIST-2T 2,2025-313G,2026-07-17T15:59:38.484960,15.60683545,.00040633,97.0815,276.1620,114.2632,245.9051,0,U,67254,999,3136,-.24396197E-4,-.2119E-4,0
